STARLINK-36767          
1 67814U 26032T   26066.13442372  .00136479  00000+0  89950-3 0  9998
2 67814  97.2845 252.5304 0001638  72.5366 287.6079 15.75236828  4382
STARLINK-36797          
1 67815U 26032U   26066.12560076  .00136398  00000+0  89889-3 0  9991
2 67815  97.2850 252.5431 0001535  76.3193 283.8243 15.75239279  4380
STARLINK-36343          
1 67816U 26032V   26066.17037932 -.00839392  00000+0 -51619-2 0  9992
2 67816  97.2830 252.6344 0001461 108.6251 251.5175 15.79316517  4397
STARLINK-36756          
1 67817U 26032W   26066.11677809  .00092289  00000+0  61205-3 0  9997
2 67817  97.2846 252.5547 0001305  70.1723 289.9683 15.75224025  4378
STARLINK-36346          
1 67818U 26032X   26066.16670139 -.01942500  00000+0 -13578-1 0  9993
2 67818  97.2843 252.6437 0001857  93.0068 273.9136 15.77429862  4377
STARLINK-36788          
1 67819U 26032Y   26066.12771581  .00103701  00000+0  68619-3 0  9990
2 67819  97.2850 252.5397 0001560  57.1797 302.9618 15.75241219  4386
STARLINK-36353          
1 67820U 26032Z   26066.12383532  .00167284  00000+0  10975-2 0  9994
2 67820  97.2846 252.5447 0001509  66.8643 293.2781 15.75255010  4386
STARLINK-36644          
1 67821U 26033A   26066.04271649  .00207432  00000+0  96064-3 0  9996
2 67821  42.9979 287.7477 0002180 262.2035  97.8589 15.82094673  4206
STARLINK-36643          
1 67822U 26033B   26066.04196383  .00255706  00000+0  11755-2 0  9998
2 67822  42.9975 287.7414 0002501 280.0976  79.9614 15.82121365  4202
STARLINK-36646          
1 67823U 26033C   26066.04121709  .00281812  00000+0  12913-2 0  9993
2 67823  42.9976 287.7357 0002378 279.5637  80.4966 15.82122603  4202
STARLINK-36647          
1 67824U 26033D   26066.04046907  .00219712  00000+0  10159-2 0  9990
2 67824  42.9977 287.7296 0002334 266.7123  93.3482 15.82095197  4209
STARLINK-36648          
1 67825U 26033E   26066.03971840  .00183755  00000+0  85386-3 0  9995
2 67825  42.9978 287.7232 0002543 279.0683  80.9901 15.82087770  4207
